#dP2022  2 19 12  0  0.00000000      96 __u+U ITR00 EXT  IAC
## 2197 561600.00000000   900.00000000 59629 0.5000000000000
+  115   C06C07C08C09C10C11C12C13C14C19C20C21C22C23C24C25C26
+        C27C28C29C30C32C33C34C35C36C37C38C39C40C41C42C43C44
+        C45C46E01E02E03E04E05E07E09E10E11E12E13E14E15E18E21
+        E24E25E26E27E30E31E33E34E36G01G02G03G04G05G06G07G08
+        G09G10G11G12G13G14G15G16G17G18G19G20G21G22G23G24G25
+        G26G27G28G29G30G31G32J01J02J03R01R02R03R04R05R07R08
+        R09R11R12R13R14R15R17R18R19R20R21R22R24  0  0  0  0
++         9 11  8 10 10  9  7  7  8  8  9  8  8 10 10  9  8
++        10  7  8  8  8 10  9  9  9  8  8  9 10  8  9 11  8
++         8  8  9  8  6  7  7  7  7  7  7  8  9  8  8  8  7
++         9  9  8  7  8  8  8  9  8  7  7  7  6  7  7  8  7
++         8  7  7  9  9  8  9  9  8  6  7  7  8  9  7  7  6
++         8  7  7  7  8  8  7  9  9  9  9  7  8  8  8  8  9
++         9  9  8  8 10  9  9  8  9  9  8 10  9  0  0  0  0
%c M  cc GPS ccc cccc cccc cccc cccc ccccc ccccc ccccc ccccc
%c cc cc ccc ccc cccc cccc cccc cccc ccccc ccccc ccccc ccccc
%f  0.0000000  0.000000000  0.00000000000  0.000000000000000
%f  0.0000000  0.000000000  0.00000000000  0.000000000000000
%i    0    0    0    0      0      0      0      0         0
%i    0    0    0    0      0      0      0      0         0
/* IAC                                ULTRA-RAPID PREDICTION
/* S/V CLOCKS ARE ALIGNED TO GNSS TIME                      
/* G:C1WC2W R:C1PC2P E:C1XC5X C:C2IC6I J:C1CC2S             
/* PCV:IGS14_2196 OL/AL:FES2004  NONE     YN ORB:CoN CLK:CoN
*  2022 02 20  8 45  0.00000000
PC06  -4296.586017  37525.265518 -18518.969398     82.484670
PC07 -10274.490473  25234.127518  32160.321495    -76.046939
PC08 -19817.613615  33728.774565 -15892.541315    147.088106
PC09   2017.931801  40854.046947  -8824.708732   -539.028073
PC10  -1310.731588  27013.357216  32620.826951    139.720144
PC11  -4817.323077 -27305.011589  -2967.063083   -196.981656
PC12   7256.395348 -19754.270059 -18283.569901    681.045073
PC13 -12687.312624  33919.403166 -21685.080848   -111.290489
PC14  -6246.735421 -16826.093964  21378.102996    453.926366
PC19  16561.578941  15617.714734 -16123.634014    894.848747
PC20  -2809.520467  15575.135813 -22967.491829   -827.365150
PC21  21745.858809  -6117.960157  16416.138696   -941.258243
PC22  27105.812737   6684.193884    318.145368   -958.207342
PC23 -19574.264182   -530.476792 -19889.571311   -956.502219
PC24  12194.698147 -22881.336158 -10294.831775   -944.135495
PC25  -6503.590833 -16017.717301 -21912.153296   -776.743322
PC26  21472.553492 -16840.872424   5725.499863    776.561057
PC27 -12754.944111  11361.049713  22046.062516    680.298456
PC28 -16885.816804  -9279.472391  20191.264650     34.865282
PC29  11992.076039  24410.051645  -6240.809575    517.631840
PC30   -749.338158  25307.854795  11699.937987    493.714124
PC32 -21723.450230   6243.819547 -16343.829782   -967.795043
PC33 -16524.862790 -15583.696699  16210.837580   -958.691586
PC34    119.899402 -25719.386098 -10871.782033   -464.915043
PC35  17246.782125   9451.547966 -19788.847835    148.158551
PC36   5649.279587  16522.833655  21785.501162   -911.398439
PC37 -22139.373981  15608.697275  -6756.224953   -958.033419
PC38 -23215.854882  34065.703161  -9143.503368    212.717543
PC39  -7375.686956  32908.082807 -25180.536836     34.797433
PC40 -14335.813772  18954.860785  34783.231818    245.975589
PC41 -27038.623084  -6912.427170    184.722315   -940.688715
PC42   3968.751203 -15381.127945  22989.573399   -932.241654
PC43 -11574.934226 -24786.203475   5582.662832   -940.611120
PC44  12568.819447 -11679.279271 -22024.081836    570.812120
PC45  19592.813399    236.440904  19854.442992    685.349963
PC46 -11138.927740  22888.959146  11480.300146   -178.362329
PE01  -8013.979422  17984.622795  22102.325495   -582.612706
PE02   7797.509382 -17978.307687 -22182.858276    281.453481
PE03  -3284.094250 -22024.640729  19494.631847   -529.666716
PE04  19314.189944  22080.809843  -3932.640399   -968.621797
PE05  14976.497025  -9021.783763  23886.780053   -207.325410
PE07 -24268.875796  -9056.635001 -14313.614690   -640.872761
PE09  24221.065529   8835.290839  14554.616361   5353.945421
PE10  12874.483206  12314.566190 -23639.107161   -496.394122
PE11  16339.964318    625.391091 -24677.531780   4409.761387
PE12   7598.508402  21511.836471 -18841.803302   4750.305023
PE13 -16123.179116  -1376.166155  24794.122904    426.688547
PE14  21425.175960  -3990.158213 -23892.673070  -1752.209712
PE15  -7511.754765 -21617.406711  18789.949102    762.201451
PE18 -11806.694481   9762.541606  18424.414543  -1770.974595
PE21 -24540.511956  13774.386330   9190.839032   -718.239118
PE24  27538.633596   -344.209369  10788.902545  -1400.630149
PE25  24673.548192 -13657.171226  -8969.865063   -564.252407
PE26 -15075.791114  20325.057580  15362.071071   -826.812660
PE27 -27938.701683   1381.626696  -9710.141039   -236.477443
PE30 -13781.039642 -12408.110378 -23090.166523   -288.927925
PE31  14854.408749  11735.110845  22754.174273   -492.454233
PE33  -5505.769725  29025.480047  -1713.921094   -459.260883
PE34   5313.399124 -29054.211196   1934.769931   -502.798542
PE36  15208.180089 -19571.729648 -16182.693115   -334.901571
PG01 -13777.605443  21110.745366   7492.332879    426.949585
PG02  15668.300507  -2417.243086 -20673.681840   -651.181360
PG03 -18108.387478  12878.716614 -14569.457122   -129.729534
PG04  -8248.586868  13661.465654 -21213.326553   -188.456411
PG05  26164.365900  -5029.308814   -205.524184    -72.070188
PG06   8535.940762  14873.445346 -20189.977917    207.305633
PG07  -3829.066012  24949.217007   7782.084655    311.556744
PG08 -15979.060804   3553.933077  20958.764162    -56.885285
PG09   2608.120795  20945.426064 -16171.777215   -353.372211
PG10 -11620.786284 -12398.143626  20629.574846   -325.535477
PG11  16105.653687    118.418879 -21121.196366    -83.139715
PG12  21013.893377 -10419.365363 -12595.617658   -173.762237
PG13  18216.243278   5707.867377  18382.971906    264.692334
PG14  10287.644366  13445.267771  20475.404252    -85.993674
PG15  15521.971169  -6077.614242  20330.688359    -82.439158
PG16 -26581.610963   -810.824653  -3694.961895   -471.746905
PG17  13032.231603  22855.728303   3873.003908    577.490705
PG18   4592.370046 -24974.097070   7603.873031    236.269563
PG19  16911.418752  20058.498993  -4990.768158    121.331169
PG20  24467.885999   -165.916541 -10020.309374    516.624817
PG21 -16216.851134  12876.162452  16928.966520    158.329954
PG22 -18094.956167 -18190.367880  -6824.336716    216.315789
PG23   1224.174112 -15369.591734  21606.270801     -0.330239
PG24  14459.754738 -18635.442305  11499.554585    273.516933
PG25   8873.570702 -15557.738361 -19806.585006    288.092302
PG26 -21285.458007  -6583.106828 -14768.241982    184.762945
PG27 -20054.008408  -8039.374664  15512.171781    126.677899
PG28  17782.850669  10613.521759  17019.784783    396.519914
PG29    903.301124 -19668.368067 -17846.654169   -482.446575
PG30   2829.924922  21831.886495  14752.348796   -514.473106
PG31 -10809.715018 -12456.383690 -20849.417148   -165.566306
PG32 -16958.705731 -20576.980898   -117.242656    -70.973441
PJ01 -26898.986009  14457.476134 -24464.446489    237.935767
PJ02 -31515.826472  26138.785288  15001.907135     -1.467023
PJ03 -26360.465141  25753.098539  25577.403717     -0.611235
PR01  18475.611627  -1122.678024  17560.668911      7.096596
PR02    169.078985 -11740.774068  22695.613496    510.216574
PR03 -16398.403658 -14517.795282  13170.499100     51.810068
PR04 -23517.145976  -9230.110821  -3538.335676    128.509608
PR05 -17725.306245   1074.959005 -18310.575625     88.048153
PR07  16896.536697  14407.215359 -12470.419796     31.839852
PR08  23554.143447   9016.069867   3782.307983    -63.660403
PR09 -11479.904989  17384.049079  14682.505243     40.461222
PR11  17570.244474  -2002.547568  18392.732583     45.246433
PR12  21313.290841 -13806.783722   2285.086977     17.238793
PR13  12573.251427 -17352.181746 -13854.232041    -18.524751
PR14  -4452.097400 -10424.881333 -22846.297391     74.568920
PR15 -18066.335235   2286.496130 -17850.966732     98.070152
PR17  -6179.254397 -22907.216851   9337.309418    503.206095
PR18 -10317.682278  -9571.061329  21307.708531    107.878939
PR19  -9566.773003   7547.134709  22412.505184   -178.871261
PR20  -2818.565012  23690.907267   8971.092903    -65.286811
PR21   6563.357596  22241.262218 -10645.690522   -279.484006
PR22  10302.950742   8525.426946 -21707.603419   -165.865777
PR24   2107.292551 -24060.463678  -8174.433852     81.043985
EOF
